SL-16 R/B               
1 22285U 92093B   25322.92789829  .00000051  00000+0  50750-4 0  9996
2 22285  71.0217 236.7787 0002354 142.2636 217.8652 14.15427854697483
COSMOS 2228             
1 22286U 92094A   25322.88892062  .00002536  00000+0  22005-3 0  9998
2 22286  82.5179 343.3557 0016858 319.0388  40.9566 14.96576171759484
SL-16 R/B               
1 22566U 93016B   25322.74527062  .00000356  00000+0  20734-3 0  9999
2 22566  71.0071  88.1956 0008757 141.9123 218.2621 14.15285234686472
COSMOS 2242             
1 22626U 93024A   25322.89151568  .00002552  00000+0  22500-3 0  9998
2 22626  82.5211  12.6362 0015340 322.1211  37.8930 14.95970852763820
SL-16 R/B               
1 22803U 93059B   25322.94593220 -.00000010  00000+0  18974-4 0  9993
2 22803  70.9902 244.6582 0016541  11.0506 349.0978 14.17208830663846
ARIANE 40 R/B           
1 22830U 93061H   25322.66519417  .00000350  00000+0  14443-3 0  9993
2 22830  98.5108  28.6301 0009701 250.4909 109.5228 14.32779818678204
COSMOS 2278             
1 23087U 94023A   25322.70153359  .00000414  00000+0  24101-3 0  9994
2 23087  71.0553  47.3002 0009715 210.6542 149.4014 14.14344013629118
SL-16 R/B               
1 23088U 94023B   25322.94008424 -.00000144  00000+0 -49548-4 0  9998
2 23088  70.9989 303.4666 0001201 142.1749 217.9458 14.14991406630425
SL-16 R/B               
1 23343U 94074B   25322.88582032  .00000669  00000+0  96635-4 0  9992
2 23343  97.7233 353.1354 0005715 211.4607 321.7430 14.79251006670863
SL-16 R/B               
1 23405U 94077B   25322.96488114 -.00000010  00000+0  19302-4 0  9996
2 23405  70.9826 225.4274 0004298 303.1834  56.8877 14.15547908600561
ARIANE 40+ R/B          
1 23561U 95021B   25322.70773404  .00000448  00000+0  15716-3 0  9998
2 23561  98.4681  30.5837 0007879 112.2678  42.8267 14.39669235603274
SL-16 R/B               
1 23705U 95058B   25322.68369469 -.00000213  00000+0 -84434-4 0  9993
2 23705  71.0228  53.3083 0014997 286.0573  73.8898 14.15475940552142
