CCSDS_OMM_VERS = 2.0
CREATION_DATE  = 
ORIGINATOR     = 

OBJECT_NAME    = SL-16 R/B
OBJECT_ID      = 1992-093B
CENTER_NAME    = EARTH
REF_FRAME      = TEME
TIME_SYSTEM    = UTC
MEAN_ELEMENT_THEORY = SGP/SGP4

EPOCH          = 2025-11-18T22:16:10.412256
MEAN_MOTION    = 14.15427854
ECCENTRICITY   = .00023547
INCLINATION    = 71.0217
RA_OF_ASC_NODE = 236.7787
ARG_OF_PERICENTER = 142.2636
MEAN_ANOMALY   = 217.8652

EPHEMERIS_TYPE = 0
CLASSIFICATION_TYPE = U
NORAD_CAT_ID   = 22285
ELEMENT_SET_NO = 999
REV_AT_EPOCH   = 69748
BSTAR          = .50749557E-4
MEAN_MOTION_DOT = .51E-6
MEAN_MOTION_DDOT = 0

CCSDS_OMM_VERS = 2.0
CREATION_DATE  = 
ORIGINATOR     = 

OBJECT_NAME    = COSMOS 2228
OBJECT_ID      = 1992-094A
CENTER_NAME    = EARTH
REF_FRAME      = TEME
TIME_SYSTEM    = UTC
MEAN_ELEMENT_THEORY = SGP/SGP4

EPOCH          = 2025-11-18T21:20:02.741568
MEAN_MOTION    = 14.96576171
ECCENTRICITY   = .00168585
INCLINATION    = 82.5179
RA_OF_ASC_NODE = 343.3557
ARG_OF_PERICENTER = 319.0388
MEAN_ANOMALY   = 40.9566

EPHEMERIS_TYPE = 0
CLASSIFICATION_TYPE = U
NORAD_CAT_ID   = 22286
ELEMENT_SET_NO = 999
REV_AT_EPOCH   = 75948
BSTAR          = .22004801E-3
MEAN_MOTION_DOT = .2536E-4
MEAN_MOTION_DDOT = 0

CCSDS_OMM_VERS = 2.0
CREATION_DATE  = 
ORIGINATOR     = 

OBJECT_NAME    = SL-16 R/B
OBJECT_ID      = 1993-016B
CENTER_NAME    = EARTH
REF_FRAME      = TEME
TIME_SYSTEM    = UTC
MEAN_ELEMENT_THEORY = SGP/SGP4

EPOCH          = 2025-11-18T17:53:11.381568
MEAN_MOTION    = 14.15285234
ECCENTRICITY   = .00087576
INCLINATION    = 71.0071
RA_OF_ASC_NODE = 88.1956
ARG_OF_PERICENTER = 141.9123
MEAN_ANOMALY   = 218.2621

EPHEMERIS_TYPE = 0
CLASSIFICATION_TYPE = U
NORAD_CAT_ID   = 22566
ELEMENT_SET_NO = 999
REV_AT_EPOCH   = 68647
BSTAR          = .20733982E-3
MEAN_MOTION_DOT = .356E-5
MEAN_MOTION_DDOT = 0

CCSDS_OMM_VERS = 2.0
CREATION_DATE  = 
ORIGINATOR     = 

OBJECT_NAME    = COSMOS 2242
OBJECT_ID      = 1993-024A
CENTER_NAME    = EARTH
REF_FRAME      = TEME
TIME_SYSTEM    = UTC
MEAN_ELEMENT_THEORY = SGP/SGP4

EPOCH          = 2025-11-18T21:23:46.954752
MEAN_MOTION    = 14.95970852
ECCENTRICITY   = .00153409
INCLINATION    = 82.5211
RA_OF_ASC_NODE = 12.6362
ARG_OF_PERICENTER = 322.1211
MEAN_ANOMALY   = 37.8930

EPHEMERIS_TYPE = 0
CLASSIFICATION_TYPE = U
NORAD_CAT_ID   = 22626
ELEMENT_SET_NO = 999
REV_AT_EPOCH   = 76382
BSTAR          = .2250021E-3
MEAN_MOTION_DOT = .2552E-4
MEAN_MOTION_DDOT = 0

CCSDS_OMM_VERS = 2.0
CREATION_DATE  = 
ORIGINATOR     = 

OBJECT_NAME    = SL-16 R/B
OBJECT_ID      = 1993-059B
CENTER_NAME    = EARTH
REF_FRAME      = TEME
TIME_SYSTEM    = UTC
MEAN_ELEMENT_THEORY = SGP/SGP4

EPOCH          = 2025-11-18T22:42:08.542080
MEAN_MOTION    = 14.17208830
ECCENTRICITY   = .00165415
INCLINATION    = 70.9902
RA_OF_ASC_NODE = 244.6582
ARG_OF_PERICENTER = 11.0506
MEAN_ANOMALY   = 349.0978

EPHEMERIS_TYPE = 0
CLASSIFICATION_TYPE = U
NORAD_CAT_ID   = 22803
ELEMENT_SET_NO = 999
REV_AT_EPOCH   = 66384
BSTAR          = .18974412E-4
MEAN_MOTION_DOT = -.1E-6
MEAN_MOTION_DDOT = 0

CCSDS_OMM_VERS = 2.0
CREATION_DATE  = 
ORIGINATOR     = 

OBJECT_NAME    = ARIANE 40 R/B
OBJECT_ID      = 1993-061H
CENTER_NAME    = EARTH
REF_FRAME      = TEME
TIME_SYSTEM    = UTC
MEAN_ELEMENT_THEORY = SGP/SGP4

EPOCH          = 2025-11-18T15:57:52.776288
MEAN_MOTION    = 14.32779818
ECCENTRICITY   = .00097015
INCLINATION    = 98.5108
RA_OF_ASC_NODE = 28.6301
ARG_OF_PERICENTER = 250.4909
MEAN_ANOMALY   = 109.5228

EPHEMERIS_TYPE = 0
CLASSIFICATION_TYPE = U
NORAD_CAT_ID   = 22830
ELEMENT_SET_NO = 999
REV_AT_EPOCH   = 67820
BSTAR          = .14442811E-3
MEAN_MOTION_DOT = .35E-5
MEAN_MOTION_DDOT = 0

CCSDS_OMM_VERS = 2.0
CREATION_DATE  = 
ORIGINATOR     = 

OBJECT_NAME    = COSMOS 2278
OBJECT_ID      = 1994-023A
CENTER_NAME    = EARTH
REF_FRAME      = TEME
TIME_SYSTEM    = UTC
MEAN_ELEMENT_THEORY = SGP/SGP4

EPOCH          = 2025-11-18T16:50:12.502176
MEAN_MOTION    = 14.14344013
ECCENTRICITY   = .00097156
INCLINATION    = 71.0553
RA_OF_ASC_NODE = 47.3002
ARG_OF_PERICENTER = 210.6542
MEAN_ANOMALY   = 149.4014

EPHEMERIS_TYPE = 0
CLASSIFICATION_TYPE = U
NORAD_CAT_ID   = 23087
ELEMENT_SET_NO = 999
REV_AT_EPOCH   = 62911
BSTAR          = .2410054E-3
MEAN_MOTION_DOT = .414E-5
MEAN_MOTION_DDOT = 0

CCSDS_OMM_VERS = 2.0
CREATION_DATE  = 
ORIGINATOR     = 

OBJECT_NAME    = SL-16 R/B
OBJECT_ID      = 1994-023B
CENTER_NAME    = EARTH
REF_FRAME      = TEME
TIME_SYSTEM    = UTC
MEAN_ELEMENT_THEORY = SGP/SGP4

EPOCH          = 2025-11-18T22:33:43.278336
MEAN_MOTION    = 14.14991406
ECCENTRICITY   = .00012014
INCLINATION    = 70.9989
RA_OF_ASC_NODE = 303.4666
ARG_OF_PERICENTER = 142.1749
MEAN_ANOMALY   = 217.9458

EPHEMERIS_TYPE = 0
CLASSIFICATION_TYPE = U
NORAD_CAT_ID   = 23088
ELEMENT_SET_NO = 999
REV_AT_EPOCH   = 63042
BSTAR          = -.49548113E-4
MEAN_MOTION_DOT = -.144E-5
MEAN_MOTION_DDOT = 0

CCSDS_OMM_VERS = 2.0
CREATION_DATE  = 
ORIGINATOR     = 

OBJECT_NAME    = SL-16 R/B
OBJECT_ID      = 1994-074B
CENTER_NAME    = EARTH
REF_FRAME      = TEME
TIME_SYSTEM    = UTC
MEAN_ELEMENT_THEORY = SGP/SGP4

EPOCH          = 2025-11-18T21:15:34.875648
MEAN_MOTION    = 14.79251006
ECCENTRICITY   = .00057154
INCLINATION    = 97.7233
RA_OF_ASC_NODE = 353.1354
ARG_OF_PERICENTER = 211.4607
MEAN_ANOMALY   = 321.7430

EPHEMERIS_TYPE = 0
CLASSIFICATION_TYPE = U
NORAD_CAT_ID   = 23343
ELEMENT_SET_NO = 999
REV_AT_EPOCH   = 67086
BSTAR          = .96634803E-4
MEAN_MOTION_DOT = .669E-5
MEAN_MOTION_DDOT = 0

CCSDS_OMM_VERS = 2.0
CREATION_DATE  = 
ORIGINATOR     = 

OBJECT_NAME    = SL-16 R/B
OBJECT_ID      = 1994-077B
CENTER_NAME    = EARTH
REF_FRAME      = TEME
TIME_SYSTEM    = UTC
MEAN_ELEMENT_THEORY = SGP/SGP4

EPOCH          = 2025-11-18T23:09:25.730496
MEAN_MOTION    = 14.15547908
ECCENTRICITY   = .0004298
INCLINATION    = 70.9826
RA_OF_ASC_NODE = 225.4274
ARG_OF_PERICENTER = 303.1834
MEAN_ANOMALY   = 56.8877

EPHEMERIS_TYPE = 0
CLASSIFICATION_TYPE = U
NORAD_CAT_ID   = 23405
ELEMENT_SET_NO = 999
REV_AT_EPOCH   = 60056
BSTAR          = .19301829E-4
MEAN_MOTION_DOT = -.1E-6
MEAN_MOTION_DDOT = 0

CCSDS_OMM_VERS = 2.0
CREATION_DATE  = 
ORIGINATOR     = 

OBJECT_NAME    = ARIANE 40+ R/B
OBJECT_ID      = 1995-021B
CENTER_NAME    = EARTH
REF_FRAME      = TEME
TIME_SYSTEM    = UTC
MEAN_ELEMENT_THEORY = SGP/SGP4

EPOCH          = 2025-11-18T16:59:08.221056
MEAN_MOTION    = 14.39669235
ECCENTRICITY   = .00078792
INCLINATION    = 98.4681
RA_OF_ASC_NODE = 30.5837
ARG_OF_PERICENTER = 112.2678
MEAN_ANOMALY   = 42.8267

EPHEMERIS_TYPE = 0
CLASSIFICATION_TYPE = U
NORAD_CAT_ID   = 23561
ELEMENT_SET_NO = 999
REV_AT_EPOCH   = 60327
BSTAR          = .15715598E-3
MEAN_MOTION_DOT = .448E-5
MEAN_MOTION_DDOT = 0

CCSDS_OMM_VERS = 2.0
CREATION_DATE  = 
ORIGINATOR     = 

OBJECT_NAME    = SL-16 R/B
OBJECT_ID      = 1995-058B
CENTER_NAME    = EARTH
REF_FRAME      = TEME
TIME_SYSTEM    = UTC
MEAN_ELEMENT_THEORY = SGP/SGP4

EPOCH          = 2025-11-18T16:24:31.221216
MEAN_MOTION    = 14.15475940
ECCENTRICITY   = .0014997
INCLINATION    = 71.0228
RA_OF_ASC_NODE = 53.3083
ARG_OF_PERICENTER = 286.0573
MEAN_ANOMALY   = 73.8898

EPHEMERIS_TYPE = 0
CLASSIFICATION_TYPE = U
NORAD_CAT_ID   = 23705
ELEMENT_SET_NO = 999
REV_AT_EPOCH   = 55214
BSTAR          = -.84434383E-4
MEAN_MOTION_DOT = -.213E-5
MEAN_MOTION_DDOT = 0

